{
    "links": {
        "self": "http://www.neowsapp.com/rest/v1/neo/3761483?api_key=iIulBulltgU6a56xZRHN4H3l9WmuAYTsLGpBGhQ2"
    },
    "id": "3761483",
    "neo_reference_id": "3761483",
    "name": "(2016 TU93)",
    "designation": "2016 TU93",
    "nasa_jpl_url": "http://ssd.jpl.nasa.gov/sbdb.cgi?sstr=3761483",
    "absolute_magnitude_h": 26.3,
    "estimated_diameter": {
        "kilometers": {
            "estimated_diameter_min": 0.0146067964,
            "estimated_diameter_max": 0.0326617897
        },
        "meters": {
            "estimated_diameter_min": 14.6067964271,
            "estimated_diameter_max": 32.6617897446
        },
        "miles": {
            "estimated_diameter_min": 0.0090762397,
            "estimated_diameter_max": 0.020295089
        },
        "feet": {
            "estimated_diameter_min": 47.92256199,
            "estimated_diameter_max": 107.1581062656
        }
    },
    "is_potentially_hazardous_asteroid": false,
    "close_approach_data": [
        {
            "close_approach_date": "2016-10-01",
            "close_approach_date_full": "2016-Oct-01 16:48",
            "epoch_date_close_approach": 1475340480000,
            "relative_velocity": {
                "kilometers_per_second": "10.4386814357",
                "kilometers_per_hour": "37579.2531683746",
                "miles_per_hour": "23350.286503427"
            },
            "miss_distance": {
                "astronomical": "0.0245834805",
                "lunar": "9.5629739145",
                "kilometers": "3677636.319986535",
                "miles": "2285177.244162783"
            },
            "orbiting_body": "Earth"
        }
    ],
    "orbital_data": {
        "orbit_id": "2",
        "orbit_determination_date": "2017-04-06 08:22:57",
        "first_observation_date": "2016-10-09",
        "last_observation_date": "2016-10-22",
        "data_arc_in_days": 13,
        "observations_used": 9,
        "orbit_uncertainty": "8",
        "minimum_orbit_intersection": ".0132089",
        "jupiter_tisserand_invariant": "4.051",
        "epoch_osculation": "2457676.5",
        "eccentricity": ".4644678859024725",
        "semi_major_axis": "1.714514169891161",
        "inclination": "2.100728850303943",
        "ascending_node_longitude": "164.7989583507282",
        "orbital_period": "819.9928112698477",
        "perihelion_distance": ".9181773980519811",
        "perihelion_argument": "158.833725931881",
        "aphelion_distance": "2.510850941730341",
        "perihelion_time": "2457628.592213939885",
        "mean_anomaly": "21.0328709527744",
        "mean_motion": ".439028239092122",
        "equinox": "J2000",
        "orbit_class": {
            "orbit_class_type": "APO",
            "orbit_class_description": "Near-Earth asteroid orbits which cross the Earth’s orbit similar to that of 1862 Apollo",
            "orbit_class_range": "a (semi-major axis) > 1.0 AU; q (perihelion) < 1.017 AU"
        }
    },
    "is_sentry_object": false
}